STARLINK-3622           
1 51768U 22017A   22083.25001157  .00033210  00000+0  24016-3 0  9999
2 51768  53.2189  11.9476 0001302  49.5802 215.4001 15.73194338  5416
STARLINK-3621           
1 51769U 22017B   22083.25001157  .00019147  00000+0  14040-3 0  9999
2 51769  53.2186  11.9449 0001223  55.1027 211.1076 15.73221707  5414
STARLINK-3612           
1 51770U 22017C   22083.25001157  .00003671  00000+0  30533-4 0  9992
2 51770  53.2167  11.9462 0001335  67.1522 198.3919 15.73225700  5416
STARLINK-3614           
1 51771U 22017D   22082.91667824  .00024533  00000+0  17878-3 0  9990
2 51771  53.2170  13.5917 0001389  67.5572 110.3732 15.73190010  5368
STARLINK-3623           
1 51772U 22017E   22082.91667824  .00020833  00000+0  15251-3 0  9993
2 51772  53.2176  13.5872 0001054  65.1325 114.7015 15.73195623  5417
STARLINK-3624           
1 51773U 22017F   22082.91667824  .00015738  00000+0  11626-3 0  9994
2 51773  53.2189  13.5901 0000972  69.3826 109.1589 15.73216175  5370
STARLINK-3629           
1 51774U 22017G   22082.91667824 -.00028986  00000+0 -20212-3 0  9997
2 51774  53.2171  13.5848 0001021  81.2673  99.7254 15.73280688  5374
STARLINK-3620           
1 51775U 22017H   22082.91667824  .00016362  00000+0  12068-3 0  9991
2 51775  53.2189  13.5887 0001046  89.8945  89.3394 15.73216643  5369
STARLINK-3608           
1 51776U 22017J   22083.25001157 -.00010700  00000+0 -71824-4 0  9999
2 51776  53.2187  11.9368 0001293  48.0391 222.6681 15.73230534  5412
STARLINK-3625           
1 51777U 22017K   22082.91667824  .00005925  00000+0  46545-4 0  9994
2 51777  53.2173  13.5857 0001435  77.0337 103.4203 15.73230355  5371
STARLINK-3615           
1 51778U 22017L   22082.91667824  .00014052  00000+0  10440-3 0  9990
2 51778  53.2207  13.2369 0001200  77.7838 276.2287 15.73192995  3701
STARLINK-3611           
1 51779U 22017M   22082.91667824  .00025453  00000+0  18520-3 0  9995
2 51779  53.2171  13.5821 0001225  66.9569 115.4338 15.73202360  5369
STARLINK-3617           
1 51780U 22017N   22082.91667824 -.00076295  00000+0 -54245-3 0  9993
2 51780  53.2178  13.5776 0001108  77.3742 107.5187 15.73272356  5418
STARLINK-3580           
1 51781U 22017P   22082.91667824  .00014947  00000+0  11060-3 0  9996
2 51781  53.2187  13.5812 0001120  72.4021 110.6062 15.73226556  5373
STARLINK-3616           
1 51782U 22017Q   22082.91667824 -.00716815  00000+0 -74601-2 0  9991
2 51782  53.2174  13.6608 0001251  59.9495  67.8235 15.66137975  5366
STARLINK-3628           
1 51783U 22017R   22083.25001157 -.00013798  00000+0 -93849-4 0  9998
2 51783  53.2173  11.9305 0001077  69.1735 204.0554 15.73251756  5414
STARLINK-3632           
1 51784U 22017S   22082.91667824 -.00716484  00000+0 -74173-2 0  9999
2 51784  53.2174  13.6601 0001504  43.9553  86.5639 15.66265575  5375
STARLINK-3646           
1 51785U 22017T   22082.91667824  .00008664  00000+0  66114-4 0  9990
2 51785  53.2176  13.5755 0001310  74.5925 111.0101 15.73188251  3701
STARLINK-3638           
1 51786U 22017U   22082.91667824 -.00716518  00000+0 -73414-2 0  9996
2 51786  53.2174  13.6586 0001373  50.8685  85.0280 15.66521207  5414
STARLINK-3619           
1 51787U 22017V   22082.91667824 -.00716539  00000+0 -74950-2 0  9996
2 51787  53.2174  13.6614 0001559  40.4359  84.5525 15.66009990  5366
STARLINK-3641           
1 51788U 22017W   22083.25001157 -.00709675  00000+0 -73042-2 0  9990
2 51788  53.2174  12.0244 0001183  84.3926 140.3339 15.66390747  5412
STARLINK-3639           
1 51789U 22017X   22082.91667824 -.00716678  00000+0 -73814-2 0  9990
2 51789  53.2174  13.6593 0001357  53.8443  79.3827 15.66393537  3708
STARLINK-3631           
1 51790U 22017Y   22082.91667824 -.00716681  00000+0 -71922-2 0  9994
2 51790  53.2175  13.6545 0001206  75.5826  70.6074 15.67032581  5415
STARLINK-3602           
1 51791U 22017Z   22083.25001157 -.00709235  00000+0 -73750-2 0  9992
2 51791  53.2174  12.0264 0001368  56.1733 163.0997 15.66134868  5418
STARLINK-3626           
1 51792U 22017AA  22083.25001157 -.00710045  00000+0 -71952-2 0  9996
2 51792  53.2175  12.0207 0001187  82.3705 150.2483 15.66774383  5461
STARLINK-3633           
1 51793U 22017AB  22082.91667824 -.00716466  00000+0 -72649-2 0  9995
2 51793  53.2175  13.6566 0001362  53.7119  87.4081 15.66776794  5411
STARLINK-3573           
1 51794U 22017AC  22082.91667824 -.00716695  00000+0 -70435-2 0  9991
2 51794  53.2175  13.6491 0001190  79.2101  76.6591 15.67543807  3706
STARLINK-3586           
1 51795U 22017AD  22082.91667824 -.00716600  00000+0 -70794-2 0  9996
2 51795  53.2175  13.6505 0001235  67.6112  85.8959 15.67415920  5364
STARLINK-3630           
1 51796U 22017AE  22083.16667824 -.00718749  00000+0 -77799-2 0  9993
2 51796  53.2174  12.4192 0001252  67.0187  29.1462 15.65170295  5404
STARLINK-3627           
1 51797U 22017AF  22083.16667824 -.00718138  00000+0 -72830-2 0  9997
2 51797  53.2175  12.4299 0001179  83.7244  36.0177 15.66779333  5455
STARLINK-3634           
1 51798U 22017AG  22083.16667824 -.00718742  00000+0 -77399-2 0  9994
2 51798  53.2175  12.4187 0001273  67.8734  31.3292 15.65298112  5450
STARLINK-3637           
1 51799U 22017AH  22082.91667824 -.00716501  00000+0 -70044-2 0  9998
2 51799  53.2175  13.6475 0001300  62.3131  95.8799 15.67671495  3700
STARLINK-3600           
1 51800U 22017AJ  22082.91667824 -.00716593  00000+0 -75299-2 0  9999
2 51800  53.2174  13.6403 0001198  69.2076  65.3958 15.65899943  3709
STARLINK-3592           
1 51801U 22017AK  22083.16667824 -.00716596  00000+0 -77948-2 0  9994
2 51801  53.2173  12.4188 0001339  51.1133  41.9769 15.65040640  5419
STARLINK-3557           
1 51802U 22017AL  22083.16667824 -.00716195  00000+0 -72859-2 0  9996
2 51802  53.2175  12.4173 0001186  72.6347  52.9047 15.66697104  5405
STARLINK-3544           
1 51803U 22017AM  22082.91667824 -.00716444  00000+0 -75564-2 0  9992
2 51803  53.2174  13.6409 0001335  54.6211  77.7255 15.65806359  3706
STARLINK-3601           
1 51804U 22017AN  22082.91667824  .00027026  00000+0  19644-3 0  9990
2 51804  53.2208  13.5328 0000952  70.0326 139.5029 15.73190625  3715
STARLINK-3605           
1 51805U 22017AP  22083.16667824 -.00037169  00000+0 -26116-3 0  9992
2 51805  53.2181  12.3145 0001278  65.7530 109.3650 15.73237354  5459
STARLINK-3581           
1 51806U 22017AQ  22082.91667824  .00030110  00000+0  21819-3 0  9997
2 51806  53.2188  13.5446 0001005  78.5926 122.9955 15.73199287  3700
STARLINK-3606           
1 51807U 22017AR  22083.16667824 -.00024190  00000+0 -16821-3 0  9996
2 51807  53.2188  12.3120 0001106  70.6325 105.7051 15.73231260  5453
STARLINK-3609           
1 51808U 22017AS  22082.91667824  .00025915  00000+0  18850-3 0  9997
2 51808  53.2190  13.5418 0001025  91.7788 111.0792 15.73198951  3704
STARLINK-3607           
1 51809U 22017AT  22082.91667824  .00031165  00000+0  22557-3 0  9991
2 51809  53.2184  13.5465 0000989  86.1225 114.1640 15.73207632  5369
STARLINK-3613           
1 51810U 22017AU  22082.91667824  .00010789  00000+0  81101-4 0  9993
2 51810  53.2188  13.5393 0001304  68.3653 135.6961 15.73225296  3700
STARLINK-3569           
1 51811U 22017AV  22083.16667824 -.00007093  00000+0 -46153-4 0  9996
2 51811  53.2186  12.3068 0001052  78.3216 100.6102 15.73208296  5400
STARLINK-3610           
1 51812U 22017AW  22082.91667824  .00025710  00000+0  18698-3 0  9995
2 51812  53.2176  13.5378 0001147  99.2672 105.4631 15.73207284  3707
STARLINK-3552           
1 51813U 22017AX  22082.91667824  .00016572  00000+0  12212-3 0  9998
2 51813  53.2185  13.5401 0000947 102.7747 100.6405 15.73226409  3701
STARLINK-3599           
1 51814U 22017AY  22082.91667824  .00029454  00000+0  21365-3 0  9991
2 51814  53.2170  13.5355 0001057  94.6516 111.4261 15.73187688  3705
STARLINK-3604           
1 51815U 22017AZ  22083.16667824 -.00026101  00000+0 -18194-3 0  9994
2 51815  53.2183  12.3002 0001043  58.7057 123.3984 15.73225412  5403
STARLINK-3603           
1 51816U 22017BA  22082.91667824  .00028422  00000+0  20622-3 0  9992
2 51816  53.2190  13.5345 0001102  93.5008 113.1617 15.73201857  3713
STARLINK-3596           
1 51817U 22017BB  22083.14728796 -.00085754  00000+0 -35962-3 0  9991
2 51817  53.2215  10.3377 0007539 273.8553  86.1611 15.84857456  5438
FALCON 9 DEB            
1 51818U 22017BC  22082.63184948  .00299259  47484-4  65847-3 0  9992
2 51818  53.2308  12.0877 0002998 344.0207  16.0729 15.97612689  4136
FALCON 9 DEB            
1 51819U 22017BD  22083.05441082  .00360606  66058-4  69938-3 0  9993
2 51819  53.2270   9.7310 0002790 272.1346  87.9366 15.99822214  4206
FALCON 9 DEB            
1 51820U 22017BE  22082.78492533  .00332969  58522-4  60533-3 0  9991
2 51820  53.2245  10.8727 0005921 302.6665  57.3795 16.00929159  4168
FALCON 9 DEB            
1 51821U 22017BF  22083.09363598  .00397709  79936-4  70167-3 0  9994
2 51821  53.2200   9.2349 0005714 279.7957  80.2430 16.01422582  4216
L-SAR 01B               
1 51822U 22018A   22083.23990313  .00000061  00000+0  12416-4 0  9990
2 51822  97.8101  91.8234 0001712  82.8759 277.2770 14.88414520  3757
CZ-4C R/B               
1 51823U 22018B   22082.98357092  .00005502  00000+0  20456-3 0  9990
2 51823  97.8625  93.0229 0131816 314.9207  44.1390 15.20149483  3808
2022-019A               
1 51824U 22019A   22083.19209941  .00002174  00000+0  14213-3 0  9991
2 51824  97.5179 159.4803 0020850 180.1090 264.2797 15.08674710  3788
2022-019B               
1 51825U 22019B   22083.18787524  .00001691  00000+0  11082-3 0  9993
2 51825  97.5172 159.4810 0018959 176.0163 268.2124 15.08915365  3773
2022-019C               
1 51826U 22019C   22083.18451697  .00002309  00000+0  14897-3 0  9997
2 51826  97.5163 159.4805 0018255 177.4353 266.7328 15.09137008  3773
